[{"OBJECT_NAME":"SURCAL 159","OBJECT_ID":"1967-053F","EPOCH":"2026-03-09T19:37:22.733472","MEAN_MOTION":13.99575786,"ECCENTRICITY":0.00094656,"INCLINATION":69.9733,"RA_OF_ASC_NODE":214.7987,"ARG_OF_PERICENTER":251.1876,"MEAN_ANOMALY":108.8205,"EPHEMERIS_TYPE":0,"CLASSIFICATION_TYPE":"U","NORAD_CAT_ID":2872,"ELEMENT_SET_NO":999,"REV_AT_EPOCH":99630,"BSTAR":0.00015093287,"MEAN_MOTION_DOT":1.67e-6,"MEAN_MOTION_DDOT":0},{"OBJECT_NAME":"CZ-6A DEB","OBJECT_ID":"2022-151RL","EPOCH":"2026-03-09T23:20:42.417024","MEAN_MOTION":14.08171538,"ECCENTRICITY":0.0053293,"INCLINATION":98.8534,"RA_OF_ASC_NODE":67.7622,"ARG_OF_PERICENTER":274.5103,"MEAN_ANOMALY":84.998,"EPHEMERIS_TYPE":0,"CLASSIFICATION_TYPE":"U","NORAD_CAT_ID":54923,"ELEMENT_SET_NO":999,"REV_AT_EPOCH":16721,"BSTAR":0.00019702231,"MEAN_MOTION_DOT":2.96e-6,"MEAN_MOTION_DDOT":0}]
